{
  "type": "FeatureCollection",
  "features": [
    {
      "type": "Feature",
      "properties": {
        "norad_id": 30646,
        "name": "FENGYUN 1C DEB",
        "group": "fengyun-1c-debris",
        "lat": 26.062400439596974,
        "lon": -164.3708120310555,
        "alt_km": 883.3734981236303,
        "timestamp": "2025-12-16T23:36:36.474228+00:00",
        "meta_object_name": "FENGYUN 1C DEB",
        "meta_object_id": "1999-025APD",
        "meta_epoch": "2025-12-16T00:44:30.507360",
        "meta_mean_motion": 14.09659485,
        "meta_eccentricity": 0.00480829,
        "meta_inclination": 98.6518,
        "meta_ra_of_asc_node": 10.4429,
        "meta_arg_of_pericenter": 22.8518,
        "meta_mean_anomaly": 337.4779,
        "meta_ephemeris_type": 0,
        "meta_classification_type": "U",
        "meta_norad_cat_id": 30646,
        "meta_element_set_no": 999,
        "meta_rev_at_epoch": 96651,
        "meta_bstar": 0.00059125934,
        "meta_mean_motion_dot": 1.006e-05,
        "meta_mean_motion_ddot": 0,
        "tle_line1": "1 30646U 99025APD 25350.03090865  .00001006  00000+0  59126-3 0  9992",
        "tle_line2": "2 30646  98.6518  10.4429 0048082  22.8518 337.4779 14.09659485966514"
      },
      "geometry": {
        "type": "Point",
        "coordinates": [
          -164.3708120310555,
          26.062400439596974
        ]
      }
    },
    {
      "type": "Feature",
      "properties": {
        "norad_id": 30647,
        "name": "FENGYUN 1C DEB",
        "group": "fengyun-1c-debris",
        "lat": -66.24871030605466,
        "lon": 82.27119032419729,
        "alt_km": 710.4160175637335,
        "timestamp": "2025-12-16T23:36:36.474238+00:00",
        "meta_object_name": "FENGYUN 1C DEB",
        "meta_object_id": "1999-025APE",
        "meta_epoch": "2025-12-15T18:41:57.206112",
        "meta_mean_motion": 14.56538076,
        "meta_eccentricity": 0.00294172,
        "meta_inclination": 98.9897,
        "meta_ra_of_asc_node": 282.0583,
        "meta_arg_of_pericenter": 164.4183,
        "meta_mean_anomaly": 250.264,
        "meta_ephemeris_type": 0,
        "meta_classification_type": "U",
        "meta_norad_cat_id": 30647,
        "meta_element_set_no": 999,
        "meta_rev_at_epoch": 98033,
        "meta_bstar": 0.0014240353,
        "meta_mean_motion_dot": 6.327e-05,
        "meta_mean_motion_ddot": 0,
        "tle_line1": "1 30647U 99025APE 25349.77913433  .00006327  00000+0  14240-2 0  9995",
        "tle_line2": "2 30647  98.9897 282.0583 0029417 164.4183 250.2640 14.56538076980337"
      },
      "geometry": {
        "type": "Point",
        "coordinates": [
          82.27119032419729,
          -66.24871030605466
        ]
      }
    },
    {
      "type": "Feature",
      "properties": {
        "norad_id": 30648,
        "name": "FENGYUN 1C DEB",
        "group": "fengyun-1c-debris",
        "lat": -81.02877512102434,
        "lon": -168.68899670858704,
        "alt_km": 760.463804085819,
        "timestamp": "2025-12-16T23:36:36.474248+00:00",
        "meta_object_name": "FENGYUN 1C DEB",
        "meta_object_id": "1999-025APF",
        "meta_epoch": "2025-12-16T05:55:24.845376",
        "meta_mean_motion": 14.48176764,
        "meta_eccentricity": 0.00341857,
        "meta_inclination": 98.6412,
        "meta_ra_of_asc_node": 84.9802,
        "meta_arg_of_pericenter": 117.2919,
        "meta_mean_anomaly": 270.3471,
        "meta_ephemeris_type": 0,
        "meta_classification_type": "U",
        "meta_norad_cat_id": 30648,
        "meta_element_set_no": 999,
        "meta_rev_at_epoch": 97917,
        "meta_bstar": 0.001443664,
        "meta_mean_motion_dot": 5.377e-05,
        "meta_mean_motion_ddot": 0,
        "tle_line1": "1 30648U 99025APF 25350.24681534  .00005377  00000+0  14437-2 0  9996",
        "tle_line2": "2 30648  98.6412  84.9802 0034185 117.2919 270.3471 14.48176764979170"
      },
      "geometry": {
        "type": "Point",
        "coordinates": [
          -168.68899670858704,
          -81.02877512102434
        ]
      }
    },
    {
      "type": "Feature",
      "properties": {
        "norad_id": 30649,
        "name": "FENGYUN 1C DEB",
        "group": "fengyun-1c-debris",
        "lat": 45.14257273863327,
        "lon": -84.6929855679143,
        "alt_km": 755.8882891998674,
        "timestamp": "2025-12-16T23:36:36.474275+00:00",
        "meta_object_name": "FENGYUN 1C DEB",
        "meta_object_id": "1999-025APG",
        "meta_epoch": "2025-12-16T06:28:50.889216",
        "meta_mean_motion": 14.29563755,
        "meta_eccentricity": 0.00513055,
        "meta_inclination": 98.8094,
        "meta_ra_of_asc_node": 85.6194,
        "meta_arg_of_pericenter": 161.2378,
        "meta_mean_anomaly": 262.0545,
        "meta_ephemeris_type": 0,
        "meta_classification_type": "U",
        "meta_norad_cat_id": 30649,
        "meta_element_set_no": 999,
        "meta_rev_at_epoch": 97114,
        "meta_bstar": 0.0013376964,
        "meta_mean_motion_dot": 3.427e-05,
        "meta_mean_motion_ddot": 0,
        "tle_line1": "1 30649U 99025APG 25350.27003344  .00003427  00000+0  13377-2 0  9993",
        "tle_line2": "2 30649  98.8094  85.6194 0051305 161.2378 262.0545 14.29563755971140"
      },
      "geometry": {
        "type": "Point",
        "coordinates": [
          -84.6929855679143,
          45.14257273863327
        ]
      }
    },
    {
      "type": "Feature",
      "properties": {
        "norad_id": 30650,
        "name": "FENGYUN 1C DEB",
        "group": "fengyun-1c-debris",
        "lat": -72.59419685587478,
        "lon": -179.45111270147947,
        "alt_km": 841.285005028265,
        "timestamp": "2025-12-16T23:36:36.474286+00:00",
        "meta_object_name": "FENGYUN 1C DEB",
        "meta_object_id": "1999-025APH",
        "meta_epoch": "2025-12-16T02:17:34.187712",
        "meta_mean_motion": 14.13954916,
        "meta_eccentricity": 0.00723391,
        "meta_inclination": 99.205,
        "meta_ra_of_asc_node": 30.7832,
        "meta_arg_of_pericenter": 180.3087,
        "meta_mean_anomaly": 235.2513,
        "meta_ephemeris_type": 0,
        "meta_classification_type": "U",
        "meta_norad_cat_id": 30650,
        "meta_element_set_no": 999,
        "meta_rev_at_epoch": 96346,
        "meta_bstar": 0.001027805,
        "meta_mean_motion_dot": 1.954e-05,
        "meta_mean_motion_ddot": 0,
        "tle_line1": "1 30650U 99025APH 25350.09553458  .00001954  00000+0  10278-2 0  9991",
        "tle_line2": "2 30650  99.2050  30.7832 0072339 180.3087 235.2513 14.13954916963467"
      },
      "geometry": {
        "type": "Point",
        "coordinates": [
          -179.45111270147947,
          -72.59419685587478
        ]
      }
    },
    {
      "type": "Feature",
      "properties": {
        "norad_id": 30652,
        "name": "FENGYUN 1C DEB",
        "group": "fengyun-1c-debris",
        "lat": -42.32826522356569,
        "lon": -164.09566856941422,
        "alt_km": 868.7726689155015,
        "timestamp": "2025-12-16T23:36:36.474297+00:00",
        "meta_object_name": "FENGYUN 1C DEB",
        "meta_object_id": "1999-025APJ",
        "meta_epoch": "2025-12-16T02:23:29.377248",
        "meta_mean_motion": 14.07806585,
        "meta_eccentricity": 0.00073708,
        "meta_inclination": 98.785,
        "meta_ra_of_asc_node": 23.1413,
        "meta_arg_of_pericenter": 254.3525,
        "meta_mean_anomaly": 170.2774,
        "meta_ephemeris_type": 0,
        "meta_classification_type": "U",
        "meta_norad_cat_id": 30652,
        "meta_element_set_no": 999,
        "meta_rev_at_epoch": 96741,
        "meta_bstar": 0.00015352866,
        "meta_mean_motion_dot": 2.17e-06,
        "meta_mean_motion_ddot": 0,
        "tle_line1": "1 30652U 99025APJ 25350.09964557  .00000217  00000+0  15353-3 0  9990",
        "tle_line2": "2 30652  98.7850  23.1413 0007370 254.3525 170.2774 14.07806585967411"
      },
      "geometry": {
        "type": "Point",
        "coordinates": [
          -164.09566856941422,
          -42.32826522356569
        ]
      }
    },
    {
      "type": "Feature",
      "properties": {
        "norad_id": 30654,
        "name": "FENGYUN 1C DEB",
        "group": "fengyun-1c-debris",
        "lat": 10.626572145057485,
        "lon": -87.36224760449284,
        "alt_km": 829.3464610220663,
        "timestamp": "2025-12-16T23:36:36.474307+00:00",
        "meta_object_name": "FENGYUN 1C DEB",
        "meta_object_id": "1999-025APL",
        "meta_epoch": "2025-12-15T08:35:08.105280",
        "meta_mean_motion": 14.17110648,
        "meta_eccentricity": 0.00354226,
        "meta_inclination": 99.2417,
        "meta_ra_of_asc_node": 272.6993,
        "meta_arg_of_pericenter": 89.3367,
        "meta_mean_anomaly": 271.1865,
        "meta_ephemeris_type": 0,
        "meta_classification_type": "U",
        "meta_norad_cat_id": 30654,
        "meta_element_set_no": 999,
        "meta_rev_at_epoch": 96717,
        "meta_bstar": 0.00098706346,
        "meta_mean_motion_dot": 1.953e-05,
        "meta_mean_motion_ddot": 0,
        "tle_line1": "1 30654U 99025APL 25349.35773270  .00001953  00000+0  98706-3 0  9990",
        "tle_line2": "2 30654  99.2417 272.6993 0035422  89.3367 271.1865 14.17110648967175"
      },
      "geometry": {
        "type": "Point",
        "coordinates": [
          -87.36224760449284,
          10.626572145057485
        ]
      }
    }
  ]
}